EUTELSAT 133 WEST A     
1 26719U 01011A   20286.53446088  .00000074  00000-0  00000-0 0  9995
2 26719   2.2328  87.9743 0004765 112.6751 240.5181  1.00273783 71748
INTELSAT 10 (IS-10)     
1 26766U 01019A   20286.42689862  .00000122  00000-0  00000-0 0  9996
2 26766   4.1513  78.1303 0003251 141.4465   3.0961  1.00271944 24824
INTELSAT 901 (IS-901)   
1 26824U 01024A   20286.41189404 -.00000207  00000-0  00000+0 0  9997
2 26824   0.0398  73.6980 0000974 146.1547 282.4146  1.00270732 70797
ASTRA 2C                
1 26853U 01025A   20286.18563925  .00000134  00000-0  00000+0 0  9996
2 26853   3.0957  84.5474 0002714 109.9397 277.3019  1.00268993 70783
USA 159 (DSP 21)        
1 26880U 01033A   20286.45229894 -.00000294  00000-0  00000+0 0  9997
2 26880  10.8744  29.5844 0002284 254.3198 211.2545  1.00266277 10822
INTELSAT 902 (IS-902)   
1 26900U 01039A   20286.38313148 -.00000286  00000-0  00000-0 0  9996
2 26900   0.8937  95.4240 0003100 107.6690 266.1649  1.00270252 69922
EUTELSAT 12 WEST B      
1 26927U 01042A   20283.39804681 -.00000231  00000-0  00000+0 0  9993
2 26927   1.3086  92.4870 0008253 245.3063 161.4734  0.98965343 69702
USA 164 (MILSTAR-2 3)   
1 27168U 02001A   20286.07079199  .00000104  00000-0  00000-0 0  9992
2 27168   8.8831  31.4314 0002615 182.6535 211.5079  1.00275176 12168
ECHOSTAR 7              
1 27378U 02006A   20286.54361149 -.00000005  00000-0  00000-0 0  9992
2 27378   0.0497  90.8407 0001179 107.7717 259.8894  1.00272891 29810
INTELSAT 904 (IS-904)   
1 27380U 02007A   20286.41145786 -.00000217  00000-0  00000+0 0  9993
2 27380   1.7310  92.1319 0003198 115.1069 292.8555  1.00271757 68294
TDRS 9                  
1 27389U 02011A   20286.45313233 -.00000284  00000-0  00000-0 0  9990
2 27389   7.7322  66.3351 0024217 278.8798 137.1340  1.00267725 69656
JCSAT-2A                
1 27399U 02015A   20286.51256466 -.00000365  00000-0  00000-0 0  9996
2 27399   3.1729  84.3257 0002462  86.2045 153.0221  1.00399862 68109
ASTRA 3A                
1 27400U 02015B   20286.40002994 -.00000203  00000-0  00000+0 0  9992
2 27400   6.1479  62.8184 0001242 151.7001 224.1917  1.00270819 67923
NSS-7                   
1 27414U 02019A   20286.34158187 -.00000158  00000-0  00000+0 0  9999
2 27414   4.4942  75.8994 0002468 129.9027 278.5700  1.00271411 67767
DIRECTV 5 (TEMPO 1)     
1 27426U 02023A   20286.53686937 -.00000061  00000-0  00000-0 0  9991
2 27426   0.0184 228.5654 0003307 337.4099 258.7736  1.00272595 67457
INTELSAT 905 (IS-905)   
1 27438U 02027A   20286.41715997 -.00000187  00000-0  00000-0 0  9993
2 27438   1.5516  92.9964 0002589 111.4095 302.7579  1.00270834 30571
GALAXY 3C (G-3C)        
1 27445U 02030A   20284.57341163 -.00000152  00000-0  00000-0 0  9992
2 27445   0.0253 279.3184 0001787  43.1385 168.5699  1.00270722 25692
EUTELSAT 5 WEST A       
1 27460U 02035A   20286.36091155 -.00000046  00000-0  00000-0 0  9998
2 27460   0.8336  95.7216 0005447 113.4891 297.1328  1.00270580 66825
METEOSAT-8 (MSG-1)      
1 27509U 02040B   20285.99490634  .00000138  00000-0  00000-0 0  9992
2 27509   6.9262  53.5710 0001560 206.9251 160.2277  1.00266080 66457
INTELSAT 906 (IS-906)   
1 27513U 02041A   20286.52410581  .00000010  00000-0  00000-0 0  9990
2 27513   0.5586  97.8492 0003222 106.6296  69.9118  1.00272455 66239
HISPASAT 30W-4          
1 27528U 02044A   20286.56914267  .00000114  00000-0  00000-0 0  9998
2 27528   1.3474  92.7438 0003377  98.8803 251.8583  1.00269793 22175
TDRS 10                 
1 27566U 02055A   20286.52687135  .00000093  00000-0  00000-0 0  9995
2 27566   7.1082  53.0536 0005365 283.1076  64.0705  1.00277671 65435
NSS-6                   
1 27603U 02057A   20286.52713306  .00000104  00000-0  00000-0 0  9992
2 27603   0.0952  97.5682 0005232 114.0275 190.2728  1.00273717 65249
NIMIQ 2                 
1 27632U 02062A   20286.40535396 -.00000177  00000-0  00000-0 0  9999
2 27632   4.6066  75.1529 0002513 351.0673  10.0135  1.00268781 23399
USA 167                 
1 27691U 03008A   20286.53578826  .00000057  00000-0  00000-0 0  9990
2 27691   6.8622  58.2047 0002079   9.9717  16.0941  1.00274012 12166
USA 169 (MILSTAR-2 4)   
1 27711U 03012A   20286.25188340 -.00000191  00000-0  00000-0 0  9995
2 27711   9.2219  44.0628 0002932 173.3425  46.7281  1.00273366 12153
GALAXY 12 (G-12)        
1 27715U 03013B   20286.53524601  .00000055  00000-0  00000-0 0  9993
2 27715   1.7670  91.5035 0001797 118.8451 234.9284  1.00272705 31291
ASIASAT 4               
1 27718U 03014A   20286.44007806  .00000148  00000-0  00000-0 0  9993
2 27718   0.0069 194.0082 0002110   9.6946  14.4334  1.00275187 24505
HELLAS-SAT 2            
1 27811U 03020A   20286.54856241 -.00000153  00000-0  00000-0 0  9997
2 27811   2.1860  90.9290 0001581 131.1136 261.8589  1.00271508 22050
THURAYA-2               
1 27825U 03026A   20286.44007806  .00000128  00000-0  00000+0 0  9992
2 27825   6.0388  33.2396 0005180 165.4893  25.1776  1.00273538 63542
OPTUS C1                
1 27831U 03028B   20286.58468206 -.00000153  00000-0  00000-0 0  9991
2 27831   1.6927  93.0264 0006122 106.3692 188.4821  1.00271674 32263
GALAXY 23 (G-23)        
1 27854U 03034A   20286.53681625  .00000008  00000-0  00000-0 0  9998
2 27854   0.0171 221.8589 0002963 340.2507 251.7327  1.00272529 62949
USA 170                 
1 27875U 03040A   20286.19354250 -.00000272  00000-0  00000-0 0  9995
2 27875   6.1176  63.6892 0004663 101.5739 243.2505  1.00266475 12163
GALAXY 13 (HORIZONS 1)  
1 27954U 03044A   20286.53559497  .00000043  00000-0  00000-0 0  9990
2 27954   0.0063 188.3227 0003334 346.4718 272.5842  1.00271154 25777
YAMAL 202               
1 28089U 03053A   20286.61089258 -.00000083  00000-0  00000-0 0  9997
2 28089   1.1239  94.1588 0004901  80.7186 230.1961  1.00272612 61880
UFO 11 (USA 174)        
1 28117U 03057A   20286.34424424 -.00000102  00000-0  00000-0 0  9993
2 28117   6.1892  37.5511 0000225 126.6355  56.6429  1.00271825 61629
USA 176 (DSP 22)        
1 28158U 04004A   20286.49442641 -.00000215  00000-0  00000-0 0  9993
2 28158   9.3093  38.5803 0000762 138.8716 109.3985  1.00268513 12134
ABS-4 (MOBISAT-1)       
1 28184U 04007A   20286.52410581  .00000036  00000-0  00000-0 0  9997
2 28184   0.8074  95.5032 0005435 108.2552  67.4939  1.00274020 31545
EUTELSAT 7A             
1 28187U 04008A   20286.37132619  .00000150  00000-0  00000-0 0  9994
2 28187   0.6004  90.1153 0003100 161.1626 294.7515  1.00272555 60561
DIRECTV 7S              
1 28238U 04016A   20286.54361108 -.00000003  00000-0  00000-0 0  9994
2 28238   0.0557  90.9074 0001529  31.4611 335.8636  1.00270807 60267
AMC-11 (GE-11)          
1 28252U 04017A   20286.53480983  .00000064  00000-0  00000-0 0  9999
2 28252   0.0510  69.9810 0002608 133.4237 239.7255  1.00272762 60083
INTELSAT 10-02          
1 28358U 04022A   20286.36091155 -.00000015  00000-0  00000-0 0  9999
2 28358   0.0080 184.4970 0002860  15.0521 310.8143  1.00272400 59818
ANIK F2                 
1 28378U 04027A   20286.53579355 -.00000054  00000-0  00000-0 0  9991
2 28378   0.0236 271.8854 0000290  38.9217 152.5971  1.00270787 20494
AMC-15                  
1 28446U 04041A   20286.54009978 -.00000093  00000-0  00000-0 0  9996
2 28446   0.0508  66.3272 0002997 151.9423 252.7147  1.00271637 58533
AMC-16                  
1 28472U 04048A   20286.55087990 -.00000211  00000-0  00000-0 0  9995
2 28472   0.0519  75.1946 0003057 143.3418 276.3852  1.00271529 57935
NSS-10 (AMC-12)         
1 28526U 05003A   20286.40988762 -.00000254  00000-0  00000-0 0  9995
2 28526   1.2918  93.3735 0002881 112.4138 285.7922  1.00270458 32361
XTAR-EUR                
1 28542U 05005A   20285.86137120  .00000148  00000-0  00000+0 0  9998
2 28542   0.0180 260.2370 0002681 302.5515 157.2307  1.00271377 57386
XM-3 (RHYTHM)           
1 28626U 05008A   20286.55088019 -.00000210  00000-0  00000-0 0  9995
2 28626   0.0195 225.0677 0000199  32.3455 237.4056  1.00270353 21833
INMARSAT 4-F1           
1 28628U 05009A   20286.57461138 -.00000263  00000-0  00000-0 0  9995
2 28628   3.2331  28.2693 0002876 179.8889 163.8291  1.00271005 56875
APSTAR 6                
1 28638U 05012A   20286.56123779 -.00000087  00000-0  00000-0 0  9999
2 28638   1.9167  90.9120 0003889 121.5098 174.1606  1.00272716 81581
DIRECTV 8               
1 28659U 05019A   20286.54361186  .00000007  00000-0  00000-0 0  9994
2 28659   0.0171 249.4332 0003517 322.9098 246.8020  1.00155491 56321
GALAXY 28 (G-28)        
1 28702U 05022A   20286.40535396 -.00000190  00000-0  00000-0 0  9992
2 28702   0.0214 255.3615 0000409  86.2049  96.8146  1.00270055 31263
EXPRESS-AM3             
1 28707U 05023A   20286.58148104 -.00000325  00000-0  00000-0 0  9994
2 28707   2.1046  89.6934 0001988  47.1540 197.1613  1.00270085 56041
THAICOM 4               
1 28786U 05028A   20286.51300084 -.00000367  00000-0  00000-0 0  9992
2 28786   0.0206 228.2182 0002465 337.1280 120.4204  1.00269133 31470
GALAXY 14 (G-14)        
1 28790U 05030A   20286.53603115  .00000032  00000-0  00000-0 0  9991
2 28790   0.0491  68.0780 0002443 136.2126 245.2633  1.00271482 55511
ANIK F1R                
1 28868U 05036A   20286.53901904 -.00000079  00000-0  00000-0 0  9992
2 28868   0.0435  38.1865 0000704 116.6574 313.4910  1.00271335 25660
GALAXY 15 (G-15)        
1 28884U 05041A   20286.53446088  .00000074  00000-0  00000-0 0  9997
2 28884   0.0440 105.6181 0001766  87.2078 248.1575  1.00272259 54878
SYRACUSE 3A             
1 28885U 05041B   20286.43452111  .00000124  00000-0  00000+0 0  9996
2 28885   0.0255 123.8726 0002869  68.6206  32.3974  1.00272635 54932
INMARSAT 4-F2           
1 28899U 05044A   20286.42896692  .00000008  00000-0  00000-0 0  9991
2 28899   3.0894  30.9834 0002757 179.9632  28.8680  1.00271322 54725
